NORAD_CAT_ID,OBJECT_NAME,OBJECT_TYPE,EPOCH,MEAN_MOTION,ECCENTRICITY,INCLINATION,RA_OF_ASC_NODE,ARG_OF_PERICENTER,MEAN_ANOMALY,BSTAR,MEAN_MOTION_DOT,MEAN_MOTION_DDOT,TLE_LINE0,TLE_LINE1,TLE_LINE2,SEMIMAJOR_AXIS,PERIOD,APOGEE,PERIGEE,DECAYED
51815.0,STARLINK-3604,PAYLOAD,2022-11-12 15:28:13,15.08850959,0.0001496999999999,53.2167,14.7064,65.6282,294.4867,0.00034,5.129e-05,0.0,0 STARLINK-3604,1 51815U 22017AZ  22316.64460182  .00005129  00000-0  34000-3 0  9994,2 51815  53.2167  14.7064 0001497  65.6282 294.4867 15.08850959 40956,6917.847,95.437,540.747,538.6759999999998,0.0
51815.0,STARLINK-3604,PAYLOAD,2022-11-13 10:32:50,15.0884402,0.0001246,53.2172,11.1365,76.5946,283.5185,1.5635e-05,-3.9e-07,0.0,0 STARLINK-3604,1 51815U 22017AZ  22317.43947873 -.00000039  00000-0  15635-4 0  9999,2 51815  53.2172  11.1365 0001246  76.5946 283.5185 15.08844020 41198,6917.868,95.437,540.595,538.871,0.0
51815.0,STARLINK-3604,PAYLOAD,2022-11-13 13:43:37,15.08832283,0.0001601,53.2179,10.5462,55.8535,304.2608,-0.00014768,-2.637e-05,0.0,0 STARLINK-3604,1 51815U 22017AZ  22317.57196620 -.00002637  00000-0 -14768-3 0  9992,2 51815  53.2179  10.5462 0001601  55.8535 304.2608 15.08832283 41217,6917.904,95.438,540.877,538.661,0.0
51815.0,STARLINK-3604,PAYLOAD,2022-11-14 10:23:38,15.08839743,0.0001645,53.2172,6.6793,58.6347,301.4806,9.9527e-05,1.296e-05,0.0,0 STARLINK-3604,1 51815U 22017AZ  22318.43308675  .00001296  00000-0  99527-4 0  9998,2 51815  53.2172   6.6793 0001645  58.6347 301.4806 15.08839743 41221,6917.880999999999,95.438,540.884,538.6080000000002,0.0
51815.0,STARLINK-3604,PAYLOAD,2022-11-14 15:09:47,15.08844358,0.0001587,53.2169,5.7864,60.4829,299.6321,0.00022329,3.268e-05,0.0,0 STARLINK-3604,1 51815U 22017AZ  22318.63180518  .00003268  00000-0  22329-3 0  9990,2 51815  53.2169   5.7864 0001587  60.4829 299.6321 15.08844358 41371,6917.8669999999975,95.437,540.83,538.634,0.0
51815.0,STARLINK-3604,PAYLOAD,2022-11-15 10:14:25,15.08836077,0.0001639,53.2167,2.2184,59.3366,300.7788,3.4008000000000004e-05,2.53e-06,0.0,0 STARLINK-3604,1 51815U 22017AZ  22319.42668941  .00000253  00000-0  34008-4 0  9998,2 51815  53.2167   2.2184 0001639  59.3366 300.7788 15.08836077 41490,6917.892,95.438,540.891,538.624,0.0
51815.0,STARLINK-3604,PAYLOAD,2022-11-15 11:49:49,15.08833198,0.0001681,53.2168,1.9215,58.6891,301.4265,0.00010813,1.433e-05,0.0,0 STARLINK-3604,1 51815U 22017AZ  22319.49293191  .00001433  00000-0  10813-3 0  9994,2 51815  53.2168   1.9215 0001681  58.6891 301.4265 15.08833198 41381,6917.901,95.438,540.929,538.6030000000002,0.0
51815.0,STARLINK-3604,PAYLOAD,2022-11-15 19:46:45,15.08833466,0.0001667,53.2164,0.4349,58.0977,302.0177,5.1569e-05,5.33e-06,0.0,0 STARLINK-3604,1 51815U 22017AZ  22319.82413269  .00000533  00000-0  51569-4 0  9995,2 51815  53.2164   0.4349 0001667  58.0977 302.0177 15.08833466 41435,6917.9,95.438,540.919,538.612,0.0
51815.0,STARLINK-3604,PAYLOAD,2022-11-16 13:15:59,15.08849543,0.0001685,53.2168,357.1633,61.4055,298.7106,0.00029256,4.372e-05,0.0,0 STARLINK-3604,1 51815U 22017AZ  22320.55276776  .00004372  00000-0  29256-3 0  9999,2 51815  53.2168 357.1633 0001685  61.4055 298.7106 15.08849543 41540,6917.851,95.437,540.882,538.5509999999998,0.0
51815.0,STARLINK-3604,PAYLOAD,2022-11-16 14:51:22,15.08834452,0.0001753,53.2165,356.8661,58.0333,302.0829,-1.6781e-05,-5.55e-06,0.0,0 STARLINK-3604,1 51815U 22017AZ  22320.61901294 -.00000555  00000-0 -16781-4 0  9997,2 51815  53.2165 356.8661 0001753  58.0333 302.0829 15.08834452 41679,6917.897,95.438,540.975,538.55,0.0
51815.0,STARLINK-3604,PAYLOAD,2022-11-16 19:37:32,15.08834428,0.000157,53.2167,355.9739,59.9412,300.1735,-2.0842e-05,-6.2e-06,0.0,0 STARLINK-3604,1 51815U 22017AZ  22320.81773331 -.00000620  00000-0 -20842-4 0  9994,2 51815  53.2167 355.9739 0001570  59.9412 300.1735 15.08834428 41580,6917.897,95.438,540.849,538.6759999999998,0.0
51815.0,STARLINK-3604,PAYLOAD,2022-11-17 13:06:46,15.0884654,0.0001606,53.2165,352.7028,61.4697,298.6457,0.00027943,4.163e-05,0.0,0 STARLINK-3604,1 51815U 22017AZ  22321.54637069  .00004163  00000-0  27943-3 0  9994,2 51815  53.2165 352.7028 0001606  61.4697 298.6457 15.08846540 41699,6917.86,95.437,540.836,538.614,0.0
51815.0,STARLINK-3604,PAYLOAD,2022-11-17 14:42:09,15.08848179,0.0001612,53.2165,352.4054,61.3432,298.7723,0.00030848,4.626e-05,0.0,0 STARLINK-3604,1 51815U 22017AZ  22321.61261023  .00004626  00000-0  30848-3 0  9997,2 51815  53.2165 352.4054 0001612  61.3432 298.7723 15.08848179 41820,6917.855,95.437,540.836,538.605,0.0
51815.0,STARLINK-3604,PAYLOAD,2022-11-17 19:28:18,15.08848692,0.0001657,53.2166,351.5132,59.7577,300.3579,0.00031627,4.75e-05,0.0,0 STARLINK-3604,1 51815U 22017AZ  22321.81132992  .00004750  00000-0  31627-3 0  9995,2 51815  53.2166 351.5132 0001657  59.7577 300.3579 15.08848692 41737,6917.854,95.437,540.865,538.573,0.0
51815.0,STARLINK-3604,PAYLOAD,2022-11-18 08:11:24,15.08844248,0.0001681,53.2164,349.1342,61.4626,298.6536,0.00017755,2.539e-05,0.0,0 STARLINK-3604,1 51815U 22017AZ  22322.34125089  .00002539  00000-0  17755-3 0  9992,2 51815  53.2164 349.1342 0001681  61.4626 298.6536 15.08844248 41930,6917.8669999999975,95.437,540.895,538.57,0.0
51815.0,STARLINK-3604,PAYLOAD,2022-11-18 11:22:10,15.08845124,0.000167,53.2164,348.5395,61.1318,298.9842,0.00021095,3.071e-05,0.0,0 STARLINK-3604,1 51815U 22017AZ  22322.47373096  .00003071  00000-0  21095-3 0  9993,2 51815  53.2164 348.5395 0001670  61.1318 298.9842 15.08845124 41830,6917.865,95.437,540.885,538.5740000000002,0.0
51815.0,STARLINK-3604,PAYLOAD,2022-11-19 09:37:34,15.08846389,0.0001689,53.2167,344.3762,61.84,298.2763,0.00015577,2.192e-05,0.0,0 STARLINK-3604,1 51815U 22017AZ  22323.40108907  .00002192  00000-0  15577-3 0  9995,2 51815  53.2167 344.3762 0001689  61.8400 298.2763 15.08846389 42092,6917.861,95.437,540.894,538.557,0.0
51815.0,STARLINK-3604,PAYLOAD,2022-11-19 12:48:20,15.08846394,0.0001594,53.2166,343.7815,54.6952,305.4189,0.00012341,1.677e-05,0.0,0 STARLINK-3604,1 51815U 22017AZ  22323.53356869  .00001677  00000-0  12341-3 0  9994,2 51815  53.2166 343.7815 0001594  54.6952 305.4189 15.08846394 41997,6917.861,95.437,540.8290000000002,538.623,0.0
51815.0,STARLINK-3604,PAYLOAD,2022-11-20 11:03:44,15.08836447,0.0001587,53.2173,339.61800000000005,57.9068,302.2078,1.5915e-05,-3.5e-07,0.0,0 STARLINK-3604,1 51815U 22017AZ  22324.46093628 -.00000035  00000-0  15915-4 0  9997,2 51815  53.2173 339.6180 0001587  57.9068 302.2078 15.08836447 42250,6917.891,95.438,540.854,538.658,0.0
51815.0,STARLINK-3604,PAYLOAD,2022-11-20 12:39:07,15.08837415,0.0001591,53.2173,339.3209,56.4275,303.6869,2.5747e-05,1.22e-06,0.0,0 STARLINK-3604,1 51815U 22017AZ  22324.52717513  .00000122  00000-0  25747-4 0  9990,2 51815  53.2173 339.3209 0001591  56.4275 303.6869 15.08837415 42145,6917.888000000001,95.438,540.854,538.653,0.0
51815.0,STARLINK-3604,PAYLOAD,2022-11-21 02:57:35,15.08845608,0.0001583,53.2172,336.6445,50.3772,309.7359,6.73e-05,7.83e-06,0.0,0 STARLINK-3604,1 51815U 22017AZ  22325.12332777  .00000783  00000-0  67300-4 0  9996,2 51815  53.2172 336.6445 0001583  50.3772 309.7359 15.08845608 42359,6917.863,95.437,540.823,538.633,0.0
51815.0,STARLINK-3604,PAYLOAD,2022-11-21 10:54:31,15.08840472,0.0001603,53.217,335.1571,45.3492,314.7631,1.4866e-05,-5.1e-07,0.0,0 STARLINK-3604,1 51815U 22017AZ  22325.45452953 -.00000051  00000-0  14866-4 0  9999,2 51815  53.2170 335.1571 0001603  45.3492 314.7631 15.08840472 42282,6917.879,95.438,540.8530000000002,538.635,0.0
51815.0,STARLINK-3604,PAYLOAD,2022-11-21 12:29:54,15.08839827,0.0001639,53.2172,334.8606,47.5356,312.5774,1.7366e-05,-1.2e-07,0.0,0 STARLINK-3604,1 51815U 22017AZ  22325.52077174 -.00000012  00000-0  17366-4 0  9990,2 51815  53.2172 334.8606 0001639  47.5356 312.5774 15.08839827 42412,6917.880999999999,95.438,540.88,538.612,0.0
51815.0,STARLINK-3604,PAYLOAD,2022-11-22 09:09:55,15.08834375,0.0001565999999999,53.2171,330.9948,46.702,313.4102,7.319399999999999e-05,8.77e-06,0.0,0 STARLINK-3604,1 51815U 22017AZ  22326.38189562  .00000877  00000-0  73194-4 0  9999,2 51815  53.2171 330.9948 0001566  46.7020 313.4102 15.08834375 42424,6917.898,95.438,540.846,538.679,0.0
51815.0,STARLINK-3604,PAYLOAD,2022-11-23 09:00:43,15.0884082,0.0001578,53.2171,326.5342,41.1633,318.9477,-0.00016232,-2.87e-05,0.0,0 STARLINK-3604,1 51815U 22017AZ  22327.37549939 -.00002870  00000-0 -16232-3 0  9993,2 51815  53.2171 326.5342 0001578  41.1633 318.9477 15.08840820 42578,6917.878000000002,95.438,540.835,538.651,0.0
51815.0,STARLINK-3604,PAYLOAD,2022-11-24 02:29:57,15.08839572,0.0001383,53.217,323.2615,57.424,302.6886,-2.9124e-05,-7.51e-06,0.0,0 STARLINK-3604,1 51815U 22017AZ  22328.10413868 -.00000751  00000-0 -29124-4 0  9997,2 51815  53.2170 323.2615 0001383  57.4240 302.6886 15.08839572 42804,6917.882,95.438,540.703,538.79,0.0
51815.0,STARLINK-3604,PAYLOAD,2022-11-24 08:51:31,15.08763817,0.0002155,53.217,322.0736,51.4768,308.6417,0.0012191,0.00019127,0.0,0 STARLINK-3604,1 51815U 22017AZ  22328.36911887  .00019127  00000-0  12191-2 0  9998,2 51815  53.2170 322.0736 0002155  51.4768 308.6417 15.08763817 42840,6918.113,95.442,541.469,538.487,0.0
51815.0,STARLINK-3604,PAYLOAD,2022-11-24 16:48:25,15.08844168,0.0001621,53.2171,320.5863,49.6607,310.4526,0.00016873,2.399e-05,0.0,0 STARLINK-3604,1 51815U 22017AZ  22328.70029205  .00002399  00000-0  16873-3 0  9995,2 51815  53.2171 320.5863 0001621  49.6607 310.4526 15.08844168 42899,6917.868,95.437,540.854,538.611,0.0
51815.0,STARLINK-3604,PAYLOAD,2022-11-25 02:20:44,15.08834947,0.0001728,53.2173,318.8027,52.1444,307.9705,0.0001434,1.995e-05,0.0,0 STARLINK-3604,1 51815U 22017AZ  22329.09773910  .00001995  00000-0  14340-3 0  9995,2 51815  53.2173 318.8027 0001728  52.1444 307.9705 15.08834947 42950,6917.896,95.438,540.956,538.565,0.0
